CHINASAT 32 (BEIDOU-1 *)
1 26599U 00069A   24345.74704571  .00000060  00000+0  00000+0 0  9993
2 26599  11.4340  36.4118 0010692 305.6597  62.0922  0.98905226 87717
CHINASAT 31 (BEIDOU-1 *)
1 26643U 00082A   24345.70855764  .00000069  00000+0  00000+0 0  9994
2 26643  11.7907  31.2885 0078594  75.5711  88.4616  0.99250633 46587
BEIDOU-1 G3             
1 27813U 03021A   24345.53083399 -.00000119  00000+0  00000+0 0  9995
2 27813  10.3007  45.8175 0014947 277.2742 118.3082  0.99781901 78787
BEIDOU-1 G4             
1 30323U 07003A   24345.38086191 -.00000093  00000+0  00000+0 0  9996
2 30323   8.5819  62.6526 0056622 255.8043 269.5107  0.99157654 65219
BEIDOU-2 M1             
1 31115U 07011A   24345.12975679  .00000014  00000+0  00000+0 0  9997
2 31115  51.1557 237.6953 0002696  11.5981 348.4768  1.77349096 66323
BEIDOU-2 G2             
1 34779U 09018A   24345.50398046 -.00000100  00000+0  00000+0 0  9991
2 34779  10.2939  45.8491 0308713 270.8953 180.8068  0.94516071 56929
BEIDOU-2 G1             
1 36287U 10001A   24345.90688132 -.00000265  00000+0  00000+0 0  9995
2 36287   3.0086  59.8812 0004633 258.3052 228.8565  1.00273017 54623
BEIDOU-2 G3             
1 36590U 10024A   24345.82332684 -.00000120  00000+0  00000+0 0  9996
2 36590   3.2110  62.0851 0005106 310.5285  83.4439  1.00269440 53229
BEIDOU-2 IGSO-1         
1 36828U 10036A   24344.94424378 -.00000030  00000+0  00000+0 0  9997
2 36828  54.2605 167.9725 0043121 205.6874 152.7209  1.00279431 52539
BEIDOU-2 G4             
1 37210U 10057A   24345.83931287 -.00000097  00000+0  00000+0 0  9990
2 37210   2.2744  70.2068 0009715 184.4546 287.5720  1.00271227 51741
BEIDOU-2 IGSO-2         
1 37256U 10068A   24345.75703697 -.00000225  00000+0  00000+0 0  9998
2 37256  48.5571 278.6653 0040511 216.1126 323.3879  1.00296223 51244
BEIDOU-2 IGSO-3         
1 37384U 11013A   24345.61411845 -.00000201  00000+0  00000+0 0  9991
2 37384  61.6100  45.4157 0031109 182.2085 180.2126  1.00263955 50115
BEIDOU-2 IGSO-4         
1 37763U 11038A   24344.98382785  .00000082  00000+0  00000+0 0  9994
2 37763  54.5658 170.6229 0130397 228.4228 130.6432  1.00270503 49098
BEIDOU-2 IGSO-5         
1 37948U 11073A   24344.59172275 -.00000186  00000+0  00000+0 0  9992
2 37948  48.6944 278.3763 0102604 221.1549 246.1176  1.00292255 47577
BEIDOU-2 G5             
1 38091U 12008A   24345.89063463  .00000072  00000+0  00000+0 0  9996
2 38091   2.1951  71.0131 0011912 225.2415 163.1801  1.00272237 46823
BEIDOU-2 M3             
1 38250U 12018A   24344.51598924 -.00000059  00000+0  00000+0 0  9993
2 38250  56.2149 323.4962 0025296 268.4374  91.2755  1.86233457 85612
BEIDOU-2 M4             
1 38251U 12018B   24344.44659161 -.00000059  00000+0  00000+0 0  9997
2 38251  56.1201 322.7567 0016211 271.5529  88.2639  1.86231900 85964
BEIDOU-2 M5             
1 38774U 12050A   24344.88050449 -.00000029  00000+0  00000+0 0  9992
2 38774  55.9532  81.3439 0040779 251.5336 108.0243  1.86251406 67521
BEIDOU-2 M6             
1 38775U 12050B   24345.23021446 -.00000033  00000+0  00000+0 0  9993
2 38775  56.0590  81.2871 0011023 338.7679  21.1860  1.86230808 82996
BEIDOU-2 G6             
1 38953U 12059A   24345.89567372 -.00000160  00000+0  00000+0 0  9996
2 38953   3.0109  79.0645 0007680 287.1945 120.3338  1.00269828 44364
BEIDOU-3S IGSO-1S       
1 40549U 15019A   24344.84979984 -.00000194  00000+0  00000+0 0  9996
2 40549  50.2476 302.1098 0034973 198.7764 340.3188  1.00264697 35504
BEIDOU-3S M2S           
1 40748U 15037A   24345.18431907 -.00000066  00000+0  00000+0 0  9991
2 40748  55.3462 321.0423 0012811 262.9698  96.8835  1.86228947 63803
BEIDOU-3S M1S           
1 40749U 15037B   24344.38377819 -.00000060  00000+0  00000+0 0  9998
2 40749  55.3495 321.0562 0004450 324.7016  35.2704  1.86227402 63790
BEIDOU-3S IGSO-2S       
1 40938U 15053A   24345.75495184 -.00000161  00000+0  00000+0 0  9996
2 40938  50.0832 265.3399 0051810 188.6587 353.8786  1.00265093 33809
BEIDOU-3S M3S           
1 41315U 16006A   24345.43193512 -.00000034  00000+0  00000+0 0  9999
2 41315  56.2245  81.9445 0003765 265.2356  94.7194  1.86231159 60287
